{
  "type": "FeatureCollection",
  "features": [
    {
      "type": "Feature",
      "properties": {
        "norad_id": 44333,
        "name": "AT&T T-16",
        "group": "intelsat",
        "lat": 0.002533232015544988,
        "lon": 41.18228784433058,
        "alt_km": 35786.383881319794,
        "timestamp": "2025-12-14T03:55:52.461146+00:00",
        "meta_object_name": "AT&T T-16",
        "meta_object_id": "2019-034A",
        "meta_epoch": "2025-12-12T21:33:37.332000",
        "meta_mean_motion": 1.00273494,
        "meta_eccentricity": 7.506e-05,
        "meta_inclination": 0.0298,
        "meta_ra_of_asc_node": 78.3043,
        "meta_arg_of_pericenter": 66.9673,
        "meta_mean_anomaly": 159.1096,
        "meta_ephemeris_type": 0,
        "meta_classification_type": "U",
        "meta_norad_cat_id": 44333,
        "meta_element_set_no": 999,
        "meta_rev_at_epoch": 2376,
        "meta_bstar": 0,
        "meta_mean_motion_dot": -1.03e-06,
        "meta_mean_motion_ddot": 0,
        "tle_line1": "1 44333U 19034A   25346.89834875 -.00000103  00000+0  00000+0 0  9999",
        "tle_line2": "2 44333   0.0298  78.3043 0000750  66.9673 159.1096  1.00273494 23761"
      },
      "geometry": {
        "type": "Point",
        "coordinates": [
          41.18228784433058,
          0.002533232015544988
        ]
      }
    },
    {
      "type": "Feature",
      "properties": {
        "norad_id": 44476,
        "name": "INTELSAT 39 (IS-39)",
        "group": "intelsat",
        "lat": -0.0128528755379776,
        "lon": -156.00335273996507,
        "alt_km": 35785.09767356038,
        "timestamp": "2025-12-14T03:55:52.461157+00:00",
        "meta_object_name": "INTELSAT 39 (IS-39)",
        "meta_object_id": "2019-049B",
        "meta_epoch": "2025-12-13T05:11:04.278336",
        "meta_mean_motion": 1.00271017,
        "meta_eccentricity": 0.00010274,
        "meta_inclination": 0.0032,
        "meta_ra_of_asc_node": 1.4988,
        "meta_arg_of_pericenter": 127.9762,
        "meta_mean_anomaly": 92.3863,
        "meta_ephemeris_type": 0,
        "meta_classification_type": "U",
        "meta_norad_cat_id": 44476,
        "meta_element_set_no": 999,
        "meta_rev_at_epoch": 2326,
        "meta_bstar": 0,
        "meta_mean_motion_dot": 4.7e-07,
        "meta_mean_motion_ddot": 0,
        "tle_line1": "1 44476U 19049B   25347.21602174  .00000047  00000+0  00000+0 0  9991",
        "tle_line2": "2 44476   0.0032   1.4988 0001027 127.9762  92.3863  1.00271017 23269"
      },
      "geometry": {
        "type": "Point",
        "coordinates": [
          -156.00335273996507,
          -0.0128528755379776
        ]
      }
    },
    {
      "type": "Feature",
      "properties": {
        "norad_id": 46114,
        "name": "GALAXY 30 (G-30)",
        "group": "intelsat",
        "lat": 0.02423852448231321,
        "lon": 17.079531098693792,
        "alt_km": 35789.43798660052,
        "timestamp": "2025-12-14T03:55:52.461169+00:00",
        "meta_object_name": "GALAXY 30 (G-30)",
        "meta_object_id": "2020-056C",
        "meta_epoch": "2025-12-13T04:13:38.758656",
        "meta_mean_motion": 1.00273102,
        "meta_eccentricity": 0.00022004,
        "meta_inclination": 0.0169,
        "meta_ra_of_asc_node": 337.4711,
        "meta_arg_of_pericenter": 285.5899,
        "meta_mean_anomaly": 117.4685,
        "meta_ephemeris_type": 0,
        "meta_classification_type": "U",
        "meta_norad_cat_id": 46114,
        "meta_element_set_no": 999,
        "meta_rev_at_epoch": 1942,
        "meta_bstar": 0,
        "meta_mean_motion_dot": 5e-07,
        "meta_mean_motion_ddot": 0,
        "tle_line1": "1 46114U 20056C   25347.17614304  .00000050  00000+0  00000+0 0  9999",
        "tle_line2": "2 46114   0.0169 337.4711 0002200 285.5899 117.4685  1.00273102 19424"
      },
      "geometry": {
        "type": "Point",
        "coordinates": [
          17.079531098693792,
          0.02423852448231321
        ]
      }
    },
    {
      "type": "Feature",
      "properties": {
        "norad_id": 54026,
        "name": "GALAXY 33 (G-33)",
        "group": "intelsat",
        "lat": 0.014202601675187205,
        "lon": 9.067514642816022,
        "alt_km": 35789.19163027156,
        "timestamp": "2025-12-14T03:55:52.461180+00:00",
        "meta_object_name": "GALAXY 33 (G-33)",
        "meta_object_id": "2022-128A",
        "meta_epoch": "2025-12-13T04:13:38.758656",
        "meta_mean_motion": 1.00271942,
        "meta_eccentricity": 0.0001951,
        "meta_inclination": 0.0052,
        "meta_ra_of_asc_node": 335.8431,
        "meta_arg_of_pericenter": 280.0567,
        "meta_mean_anomaly": 116.6241,
        "meta_ephemeris_type": 0,
        "meta_classification_type": "U",
        "meta_norad_cat_id": 54026,
        "meta_element_set_no": 999,
        "meta_rev_at_epoch": 1187,
        "meta_bstar": 0,
        "meta_mean_motion_dot": 9.2e-07,
        "meta_mean_motion_ddot": 0,
        "tle_line1": "1 54026U 22128A   25347.17614304  .00000092  00000+0  00000+0 0  9998",
        "tle_line2": "2 54026   0.0052 335.8431 0001951 280.0567 116.6241  1.00271942 11871"
      },
      "geometry": {
        "type": "Point",
        "coordinates": [
          9.067514642816022,
          0.014202601675187205
        ]
      }
    },
    {
      "type": "Feature",
      "properties": {
        "norad_id": 54027,
        "name": "GALAXY 34 (G-34)",
        "group": "intelsat",
        "lat": 0.01861083907224741,
        "lon": 13.124278590349196,
        "alt_km": 35789.345153016955,
        "timestamp": "2025-12-14T03:55:52.461192+00:00",
        "meta_object_name": "GALAXY 34 (G-34)",
        "meta_object_id": "2022-128B",
        "meta_epoch": "2025-12-13T04:13:38.758656",
        "meta_mean_motion": 1.00270299,
        "meta_eccentricity": 0.00015112,
        "meta_inclination": 0.0217,
        "meta_ra_of_asc_node": 352.8346,
        "meta_arg_of_pericenter": 263.0256,
        "meta_mean_anomaly": 120.7316,
        "meta_ephemeris_type": 0,
        "meta_classification_type": "U",
        "meta_norad_cat_id": 54027,
        "meta_element_set_no": 999,
        "meta_rev_at_epoch": 1204,
        "meta_bstar": 0,
        "meta_mean_motion_dot": 0,
        "meta_mean_motion_ddot": 0,
        "tle_line1": "1 54027U 22128B   25347.17614304  .00000000  00000+0  00000+0 0  9998",
        "tle_line2": "2 54027   0.0217 352.8346 0001511 263.0256 120.7316  1.00270299 12040"
      },
      "geometry": {
        "type": "Point",
        "coordinates": [
          13.124278590349196,
          0.01861083907224741
        ]
      }
    },
    {
      "type": "Feature",
      "properties": {
        "norad_id": 54243,
        "name": "GALAXY 31 (G-31)",
        "group": "intelsat",
        "lat": 0.024427477516509862,
        "lon": 21.051102792290056,
        "alt_km": 35788.04481151705,
        "timestamp": "2025-12-14T03:55:52.461203+00:00",
        "meta_object_name": "GALAXY 31 (G-31)",
        "meta_object_id": "2022-153A",
        "meta_epoch": "2025-12-13T07:59:31.945632",
        "meta_mean_motion": 1.00270542,
        "meta_eccentricity": 0.00015098,
        "meta_inclination": 0.012,
        "meta_ra_of_asc_node": 329.3321,
        "meta_arg_of_pericenter": 306.7558,
        "meta_mean_anomaly": 165.0544,
        "meta_ephemeris_type": 0,
        "meta_classification_type": "U",
        "meta_norad_cat_id": 54243,
        "meta_element_set_no": 999,
        "meta_rev_at_epoch": 526,
        "meta_bstar": 0,
        "meta_mean_motion_dot": 0,
        "meta_mean_motion_ddot": 0,
        "tle_line1": "1 54243U 22153A   25347.33300863  .00000000  00000+0  00000+0 0  9996",
        "tle_line2": "2 54243   0.0120 329.3321 0001509 306.7558 165.0544  1.00270542  5264"
      },
      "geometry": {
        "type": "Point",
        "coordinates": [
          21.051102792290056,
          0.024427477516509862
        ]
      }
    },
    {
      "type": "Feature",
      "properties": {
        "norad_id": 54244,
        "name": "GALAXY 32 (G-32)",
        "group": "intelsat",
        "lat": 0.02330379498706184,
        "lon": 51.07627511748184,
        "alt_km": 35787.69728932988,
        "timestamp": "2025-12-14T03:55:52.461214+00:00",
        "meta_object_name": "GALAXY 32 (G-32)",
        "meta_object_id": "2022-153B",
        "meta_epoch": "2025-12-12T13:02:51.144864",
        "meta_mean_motion": 1.00272099,
        "meta_eccentricity": 0.00025848,
        "meta_inclination": 0.0111,
        "meta_ra_of_asc_node": 11.8146,
        "meta_arg_of_pericenter": 300.84,
        "meta_mean_anomaly": 233.5475,
        "meta_ephemeris_type": 0,
        "meta_classification_type": "U",
        "meta_norad_cat_id": 54244,
        "meta_element_set_no": 999,
        "meta_rev_at_epoch": 1127,
        "meta_bstar": 0,
        "meta_mean_motion_dot": -1.63e-06,
        "meta_mean_motion_ddot": 0,
        "tle_line1": "1 54244U 22153B   25346.54364751 -.00000163  00000+0  00000+0 0  9996",
        "tle_line2": "2 54244   0.0111  11.8146 0002584 300.8400 233.5475  1.00272099 11279"
      },
      "geometry": {
        "type": "Point",
        "coordinates": [
          51.07627511748184,
          0.02330379498706184
        ]
      }
    }
  ]
}